IRIDIUM 57 [-]          
1 25273U 98019B   24048.87491646  .00000802  00000+0  27453-3 0  9992
2 25273  86.4011 348.5061 0002140  85.7683 274.3758 14.35090016355167
IRIDIUM 63 [-]          
1 25286U 98021B   24048.94331771  .00000620  00000+0  20845-3 0  9995
2 25286  86.3959 285.4026 0002195  82.2598 277.8847 14.35609731354209
IRIDIUM 69 [-]          
1 25319U 98026A   24048.94624586  .00000634  00000+0  19596-3 0  9992
2 25319  86.3980 300.1519 0002866 136.4524 223.6901 14.39803631353217
IRIDIUM 71 [-]          
1 25320U 98026B   24048.76459519  .00000737  00000+0  22747-3 0  9992
2 25320  86.3965 295.0165 0000619 169.7588 190.3623 14.40125878353701
IRIDIUM 73 [-]          
1 25344U 98032C   24048.84636203  .00000972  00000+0  24443-3 0  9997
2 25344  86.4380 252.5679 0002064 105.4072 254.7361 14.50299161360180
IRIDIUM 82 [-]          
1 25467U 98051A   24048.86856481  .00020831  00000+0  11343-2 0  9998
2 25467  86.3928 342.6384 0135210 302.3078  56.5119 15.06699347350350
IRIDIUM 2 [-]           
1 25527U 98066A   24048.90894579  .00088819  00000+0  12972-2 0  9995
2 25527  85.5142  20.3363 0008270  85.4117 274.8088 15.55299991389066
